{
  "type": "FeatureCollection",
  "features": [
    {
      "type": "Feature",
      "properties": {
        "norad_id": 50032,
        "name": "COSMOS 1408 DEB",
        "group": "cosmos-1408-debris",
        "lat": 66.48660107023258,
        "lon": -147.1188278834329,
        "alt_km": 418.31705900481484,
        "timestamp": "2025-12-20T16:47:36.557133+00:00",
        "meta_object_name": "COSMOS 1408 DEB",
        "meta_object_id": "1982-092RU",
        "meta_epoch": "2025-12-20T05:25:58.947744",
        "meta_mean_motion": 15.45764789,
        "meta_eccentricity": 0.0015981,
        "meta_inclination": 82.5638,
        "meta_ra_of_asc_node": 50.8358,
        "meta_arg_of_pericenter": 180.5492,
        "meta_mean_anomaly": 179.5742,
        "meta_ephemeris_type": 0,
        "meta_classification_type": "U",
        "meta_norad_cat_id": 50032,
        "meta_element_set_no": 999,
        "meta_rev_at_epoch": 22719,
        "meta_bstar": 8.0316e-05,
        "meta_mean_motion_dot": 3.945e-05,
        "meta_mean_motion_ddot": 0,
        "tle_line1": "1 50032U 82092RU  25354.22637671  .00003945  00000+0  80316-4 0  9996",
        "tle_line2": "2 50032  82.5638  50.8358 0015981 180.5492 179.5742 15.45764789227198"
      },
      "geometry": {
        "type": "Point",
        "coordinates": [
          -147.1188278834329,
          66.48660107023258
        ]
      }
    },
    {
      "type": "Feature",
      "properties": {
        "norad_id": 50058,
        "name": "COSMOS 1408 DEB",
        "group": "cosmos-1408-debris",
        "lat": 52.484757452418144,
        "lon": -128.72083318519762,
        "alt_km": 363.4704710029928,
        "timestamp": "2025-12-20T16:47:36.557154+00:00",
        "meta_object_name": "COSMOS 1408 DEB",
        "meta_object_id": "1982-092SW",
        "meta_epoch": "2025-12-20T11:38:58.794144",
        "meta_mean_motion": 15.64543293,
        "meta_eccentricity": 0.001615,
        "meta_inclination": 82.6128,
        "meta_ra_of_asc_node": 61.2329,
        "meta_arg_of_pericenter": 72.3269,
        "meta_mean_anomaly": 287.9752,
        "meta_ephemeris_type": 0,
        "meta_classification_type": "U",
        "meta_norad_cat_id": 50058,
        "meta_element_set_no": 999,
        "meta_rev_at_epoch": 22925,
        "meta_bstar": 0.00024421,
        "meta_mean_motion_dot": 0.0002374,
        "meta_mean_motion_ddot": 0,
        "tle_line1": "1 50058U 82092SW  25354.48540271  .00023740  00000+0  24421-3 0  9990",
        "tle_line2": "2 50058  82.6128  61.2329 0016150  72.3269 287.9752 15.64543293229254"
      },
      "geometry": {
        "type": "Point",
        "coordinates": [
          -128.72083318519762,
          52.484757452418144
        ]
      }
    },
    {
      "type": "Feature",
      "properties": {
        "norad_id": 50404,
        "name": "COSMOS 1408 DEB",
        "group": "cosmos-1408-debris",
        "lat": -68.85210204374364,
        "lon": 47.617051986724526,
        "alt_km": 503.4562486639006,
        "timestamp": "2025-12-20T16:47:36.557167+00:00",
        "meta_object_name": "COSMOS 1408 DEB",
        "meta_object_id": "1982-092ADS",
        "meta_epoch": "2025-12-19T14:20:11.624064",
        "meta_mean_motion": 15.1481285,
        "meta_eccentricity": 0.0169261,
        "meta_inclination": 82.2053,
        "meta_ra_of_asc_node": 208.0078,
        "meta_arg_of_pericenter": 175.439,
        "meta_mean_anomaly": 184.8437,
        "meta_ephemeris_type": 0,
        "meta_classification_type": "U",
        "meta_norad_cat_id": 50404,
        "meta_element_set_no": 999,
        "meta_rev_at_epoch": 21297,
        "meta_bstar": 0.0021779,
        "meta_mean_motion_dot": 0.0005852,
        "meta_mean_motion_ddot": 0,
        "tle_line1": "1 50404U 82092ADS 25353.59735676  .00058520  00000+0  21779-2 0  9997",
        "tle_line2": "2 50404  82.2053 208.0078 0169261 175.4390 184.8437 15.14812850212975"
      },
      "geometry": {
        "type": "Point",
        "coordinates": [
          47.617051986724526,
          -68.85210204374364
        ]
      }
    },
    {
      "type": "Feature",
      "properties": {
        "norad_id": 50621,
        "name": "COSMOS 1408 DEB",
        "group": "cosmos-1408-debris",
        "lat": -69.46997317349812,
        "lon": 45.496923068384824,
        "alt_km": 422.59722292489096,
        "timestamp": "2025-12-20T16:47:36.557178+00:00",
        "meta_object_name": "COSMOS 1408 DEB",
        "meta_object_id": "1982-092ALR",
        "meta_epoch": "2025-12-20T10:55:44.895936",
        "meta_mean_motion": 15.57036715,
        "meta_eccentricity": 0.0029085,
        "meta_inclination": 82.5699,
        "meta_ra_of_asc_node": 66.1468,
        "meta_arg_of_pericenter": 124.5175,
        "meta_mean_anomaly": 235.8832,
        "meta_ephemeris_type": 0,
        "meta_classification_type": "U",
        "meta_norad_cat_id": 50621,
        "meta_element_set_no": 999,
        "meta_rev_at_epoch": 22370,
        "meta_bstar": 0.00027044,
        "meta_mean_motion_dot": 0.00019984,
        "meta_mean_motion_ddot": 0,
        "tle_line1": "1 50621U 82092ALR 25354.45538074  .00019984  00000+0  27044-3 0  9990",
        "tle_line2": "2 50621  82.5699  66.1468 0029085 124.5175 235.8832 15.57036715223700"
      },
      "geometry": {
        "type": "Point",
        "coordinates": [
          45.496923068384824,
          -69.46997317349812
        ]
      }
    }
  ]
}